     2.100          NAVIGATION                              RINEX VERSION / TYPE
fic2rin                                 04/18/2009 01:46:07 PGM / RUN BY / DATE
                                                            END OF HEADER
11 09  4 18  0  0  0.0  .779516994953D-06 -.147792889038D-11  .000000000000D+00
     .870000000000D+02  .229375000000D+02  .612025493318D-08 -.304961598472D+01
     .116974115372D-05  .928062223829D-02  .656582415104D-05  .515367689323D+04
     .518400000000D+06  .558793544769D-08  .142743887799D+00 -.875443220139D-07
     .890007971056D+00  .215750000000D+03  .694491961429D+00 -.866607526253D-08
     .117147736816D-09  .100000000000D+01  .152700000000D+04  .000000000000D+00
     .240000000000D+01  .000000000000D+00 -.116415321827D-07  .870000000000D+02
     .511206000000D+06  .400000000000D+01
12 09  4 18  0  0  0.0 -.292859040201D-03  .477484718431D-11  .000000000000D+00
     .440000000000D+02 -.776250000000D+02  .430767943214D-08 -.279094846998D+01
    -.405311584473D-05  .335386232473D-02  .726059079170D-05  .515368296051D+04
     .518400000000D+06 -.186264514923D-08 -.173612133823D+01  .465661287308D-07
     .966300642529D+00  .241593750000D+03 -.755397280186D+00 -.792211570220D-08
    -.106433004790D-09  .100000000000D+01  .152700000000D+04  .000000000000D+00
     .240000000000D+01  .000000000000D+00 -.116415321827D-07  .440000000000D+02
     .511206000000D+06  .400000000000D+01
13 09  4 18  0  0  0.0  .294783618301D-03  .102318153949D-11  .000000000000D+00
     .500000000000D+02  .442812500000D+02  .387980446657D-08 -.483287473492D+00
     .220350921154D-05  .404429517221D-02  .690668821335D-05  .515372320557D+04
     .518400000000D+06 -.149011611938D-07  .250477169215D+01  .316649675369D-07
     .995048138492D+00  .269781250000D+03  .153559365799D+01 -.781568269741D-08
     .964325882329D-10  .100000000000D+01  .152700000000D+04  .000000000000D+00
     .240000000000D+01  .000000000000D+00 -.111758708954D-07  .500000000000D+02
     .511206000000D+06  .400000000000D+01
14 09  4 18  0  0  0.0 -.124240759760D-03  .579802872380D-11  .000000000000D+00
     .810000000000D+02  .373750000000D+02  .399695220339D-08 -.738534918372D+00
     .205636024475D-05  .435992691200D-02  .736303627491D-05  .515359647751D+04
     .518400000000D+06 -.577419996262D-07  .248551548726D+01  .800937414169D-07
     .988568736804D+00  .253781250000D+03 -.213115602131D+01 -.784104089654D-08
     .550022910662D-10  .100000000000D+01  .152700000000D+04  .000000000000D+00
     .240000000000D+01  .000000000000D+00 -.931322574615D-08  .810000000000D+02
     .511206000000D+06  .400000000000D+01
15 09  4 18  0  0  0.0 -.282287131995D-03 -.432009983342D-11  .000000000000D+00
     .750000000000D+02  .527812500000D+02  .466698011274D-08 -.494469438511D+00
     .261701643467D-05  .142916408367D-02  .688619911671D-05  .515360767174D+04
     .518400000000D+06  .130385160446D-07  .243429260153D+01 -.558793544769D-08
     .956596954766D+00  .242062500000D+03 -.512663390785D+00 -.822105672573D-08
     .107504477993D-09  .100000000000D+01  .152700000000D+04  .000000000000D+00
     .240000000000D+01  .000000000000D+00 -.977888703346D-08  .750000000000D+02
     .511206000000D+06  .400000000000D+01
16 09  4 18  0  0  0.0  .585541129112D-04 -.318323145621D-11  .000000000000D+00
     .900000000000D+02 -.624687500000D+02  .435303846438D-08  .970326107394D+00
    -.329688191414D-05  .530401826836D-02  .674277544022D-05  .515380381584D+04
     .518400000000D+06  .819563865662D-07 -.171922509231D+01  .130385160446D-07
     .967773802498D+00  .247468750000D+03 -.367402221812D+00 -.801426239763D-08
    -.165006873199D-09  .100000000000D+01  .152700000000D+04  .000000000000D+00
     .240000000000D+01  .000000000000D+00 -.977888703346D-08  .900000000000D+02
     .511206000000D+06  .400000000000D+01
17 09  4 18  0  0  0.0  .547417439520D-04  .170530256582D-11  .000000000000D+00
     .102000000000D+03 -.100000000000D+02  .456876173584D-08 -.111791551927D+00
    -.556930899620D-06  .443085562438D-02  .894442200661D-05  .515366468430D+04
     .518400000000D+06  .726431608200D-07 -.676736691474D+00  .838190317154D-07
     .959742674826D+00  .207187500000D+03 -.266999405794D+01 -.804926385558D-08
     .139648674071D-09  .100000000000D+01  .152700000000D+04  .000000000000D+00
     .240000000000D+01  .000000000000D+00 -.102445483208D-07  .102000000000D+03
     .511206000000D+06  .400000000000D+01
18 09  4 18  0  0  0.0 -.646808184683D-04  .341060513165D-11  .000000000000D+00
     .330000000000D+02  .220312500000D+02  .497056418681D-08  .113839248394D+01
     .112503767014D-05  .101821908029D-01  .772625207901D-05  .515359285736D+04
     .518400000000D+06 -.135973095894D-06  .143107833583D+01  .819563865662D-07
     .942724853097D+00  .219531250000D+03 -.242755807425D+01 -.839570685775D-08
    -.283226083217D-09  .100000000000D+01  .152700000000D+04  .000000000000D+00
     .240000000000D+01  .000000000000D+00 -.107102096081D-07  .330000000000D+02
     .511206000000D+06  .400000000000D+01
19 09  4 18  0  0  0.0  .280477106571D-04 -.909494701773D-12  .000000000000D+00
     .220000000000D+02 -.143750000000D+01  .446125725784D-08 -.758219862124D+00
    -.104308128357D-06  .546097836923D-02  .909715890884D-05  .515358971214D+04
     .518400000000D+06 -.726431608200D-07 -.620566569363D+00 -.197440385818D-06
     .957504145377D+00  .204968750000D+03 -.376423344183D+00 -.792675875275D-08
     .107504477993D-09  .100000000000D+01  .152700000000D+04  .000000000000D+00
     .240000000000D+01  .000000000000D+00 -.144354999065D-07  .220000000000D+02
     .511206000000D+06  .400000000000D+01
20 09  4 18  0  0  0.0  .850539654493D-04 -.102318153949D-11  .000000000000D+00
     .104000000000D+03  .242187500000D+02  .491806199988D-08  .130230604275D+01
     .124983489513D-05  .403145956807D-02  .724941492081D-05  .515363161850D+04
     .518400000000D+06 -.614672899246D-07  .137723568419D+01 -.167638063431D-07
     .942374917241D+00  .227625000000D+03  .134340932726D+01 -.829213111483D-08
    -.116433421348D-09  .100000000000D+01  .152700000000D+04  .000000000000D+00
     .240000000000D+01  .000000000000D+00 -.651925802231D-08  .104000000000D+03
     .511206000000D+06  .400000000000D+01
21 09  4 18  0  0  0.0  .186990946531D-04 -.204636307899D-11  .000000000000D+00
     .780000000000D+02  .260937500000D+02  .514664294977D-08  .244515278309D+01
     .129267573357D-05  .150314019993D-01  .705569982529D-05  .515362256813D+04
     .518400000000D+06 -.253319740295D-06  .372596414856D+00 -.195577740669D-06
     .934628830379D+00  .230375000000D+03 -.262121207004D+01 -.820641325862D-08
     .657170230921D-10  .100000000000D+01  .152700000000D+04  .000000000000D+00
     .240000000000D+01  .000000000000D+00 -.121071934700D-07  .780000000000D+02
     .511206000000D+06  .400000000000D+01
22 09  4 18  0  0  0.0  .201378017664D-03 -.795807864051D-12  .000000000000D+00
     .590000000000D+02  .202812500000D+02  .504913888833D-08  .929746130630D-01
     .990927219391D-06  .489475217182D-02  .743567943573D-05  .515366117668D+04
     .518400000000D+06 -.117346644402D-06  .143685121976D+01  .484287738800D-07
     .940386015744D+00  .226718750000D+03 -.186038980685D+01 -.836713423901D-08
    -.159292349451D-09  .100000000000D+01  .152700000000D+04  .000000000000D+00
     .240000000000D+01  .000000000000D+00 -.176951289177D-07  .590000000000D+02
     .511206000000D+06  .400000000000D+01
23 09  4 18  0  0  0.0  .389468856156D-03  .341060513165D-12  .000000000000D+00
     .130000000000D+02  .442187500000D+02  .438089676765D-08 -.129859624635D+01
     .207312405109D-05  .595419690944D-02  .660307705402D-05  .515362181282D+04
     .518400000000D+06  .223517417908D-07  .245370055784D+01 -.521540641785D-07
     .970556227334D+00  .258843750000D+03  .287433876500D+01 -.804747806691D-08
     .144648882349D-09  .100000000000D+01  .152700000000D+04  .000000000000D+00
     .240000000000D+01  .000000000000D+00 -.200234353542D-07  .130000000000D+02
     .511206000000D+06  .400000000000D+01
24 09  4 18  0  0  0.0  .182073097676D-03  .295585778076D-11  .000000000000D+00
     .940000000000D+02  .247187500000D+02  .481770067657D-08  .107626299534D+01
     .138580799103D-05  .677439745050D-02  .705942511559D-05  .515367220879D+04
     .518400000000D+06  .214204192162D-06  .404049374461D+00 -.502914190292D-07
     .951256563540D+00  .238562500000D+03 -.643586030067D+00 -.814676791701D-08
     .914323799542D-10  .100000000000D+01  .152700000000D+04  .000000000000D+00
     .340000000000D+01  .000000000000D+00 -.139698386192D-08  .940000000000D+02
     .511206000000D+06  .400000000000D+01
25 09  4 18  0  0  0.0  .365097541362D-03  .209183781408D-10  .000000000000D+00
     .840000000000D+02 -.126875000000D+02  .452661712320D-08  .157459496767D+01
    -.834465026855D-06  .115677262656D-01  .433996319771D-05  .515365559387D+04
     .518400000000D+06  .221654772758D-06 -.288236992925D+01 -.217929482460D-06
     .969404331490D+00  .298593750000D+03 -.120969793309D+01 -.809033699501D-08
     .267868300647D-10  .100000000000D+01  .152700000000D+04  .000000000000D+00
     .485000000000D+01  .000000000000D+00 -.745058059692D-08  .840000000000D+02
     .511206000000D+06  .400000000000D+01
26 09  4 18  0  0  0.0  .572525896132D-04  .181898940355D-11  .000000000000D+00
     .370000000000D+02  .518125000000D+02  .380837291973D-08 -.222984092297D+01
     .239349901676D-05  .203740254510D-01  .669620931149D-05  .515487490463D+04
     .518400000000D+06  .288709998131D-06  .250247625080D+01 -.689178705215D-07
     .992900697637D+00  .260875000000D+03  .994675247988D+00 -.752852787912D-08
     .311084386485D-09  .100000000000D+01  .152700000000D+04  .000000000000D+00
     .240000000000D+01  .000000000000D+00 -.651925802231D-08  .370000000000D+02
     .511206000000D+06  .400000000000D+01
